OBJECT_NAME,OBJECT_ID,EPOCH,MEAN_MOTION,ECCENTRICITY,INCLINATION,RA_OF_ASC_NODE,ARG_OF_PERICENTER,MEAN_ANOMALY,EPHEMERIS_TYPE,CLASSIFICATION_TYPE,NORAD_CAT_ID,ELEMENT_SET_NO,REV_AT_EPOCH,BSTAR,MEAN_MOTION_DOT,MEAN_MOTION_DDOT
ONEWEB-0597,2022-166X,2026-06-16T10:55:12.225504,13.21826972,.00020383,87.9253,244.1331,95.3171,264.8196,0,U,54663,999,17144,.2603476E-3,.121E-5,0
ONEWEB-0600,2022-166Y,2026-06-16T14:06:32.876064,13.21824093,.00018119,87.9253,244.0981,96.4582,263.6758,0,U,54664,999,17143,-.24097598E-3,-.87E-6,0
ONEWEB-0601,2022-166Z,2026-06-16T13:54:26.701344,13.21825352,.0002098,87.9254,244.1160,91.9360,268.2014,0,U,54665,999,17162,-.56809829E-4,-.1E-6,0
ONEWEB-0602,2022-166AA,2026-06-16T11:15:47.161440,13.21826029,.00017722,87.9254,244.1438,95.2179,264.9157,0,U,54666,999,17145,.52552041E-4,.35E-6,0
ONEWEB-0603,2022-166AB,2026-06-16T11:24:16.578432,13.21826451,.00019974,87.9264,244.0997,96.0718,264.0644,0,U,54667,999,17138,.22373963E-3,.105E-5,0
ONEWEB-0604,2022-166AC,2026-06-16T11:07:17.990688,13.21827697,.00020171,87.9263,244.1173,101.5697,258.5663,0,U,54668,999,17134,.17747816E-3,.86E-6,0
ONEWEB-0605,2022-166AD,2026-06-16T10:57:38.014272,13.21826373,.00025358,87.9254,244.1322,89.9771,270.1653,0,U,54669,999,17141,.55991715E-4,.36E-6,0
ONEWEB-0606,2022-166AE,2026-06-16T11:29:07.074240,13.21826615,.00020183,87.9256,244.1405,103.9584,256.1775,0,U,54670,999,17147,.88501261E-4,.5E-6,0
ONEWEB-0607,2022-166AF,2026-06-16T14:18:39.589056,13.21824369,.00019369,87.9261,244.0878,94.5415,265.5941,0,U,54671,999,17146,-.2867562E-4,.1E-7,0
ONEWEB-0608,2022-166AG,2026-06-16T10:50:20.281632,13.21828452,.00022776,87.9264,244.1132,86.3599,273.7795,0,U,54672,999,17145,.13041E-3,.67E-6,0
ONEWEB-0610,2022-166AH,2026-06-16T13:59:16.867104,13.21824384,.00020694,87.9255,244.1016,81.3972,278.7396,0,U,54673,999,17137,-.96022507E-4,-.27E-6,0
ONEWEB-0611,2022-166AJ,2026-06-16T13:49:34.284000,13.21828361,.00020376,87.9255,244.0989,102.9429,257.1933,0,U,54674,999,17136,.86171325E-4,.49E-6,0
ONEWEB-0612,2022-166AK,2026-06-16T14:08:59.005248,13.21825200,.00020394,87.9266,244.0916,94.0406,266.0961,0,U,54675,999,17135,-.9349667E-4,-.26E-6,0
ONEWEB-0615,2022-166AL,2026-06-16T06:23:54.678048,13.21826293,.000186,87.9257,244.1706,105.5385,254.5955,0,U,54676,999,17132,-.25237E-4,.3E-7,0
ONEWEB-0655,2022-166AM,2026-06-16T11:17:00.349152,13.21826763,.00018172,87.9254,244.1314,94.5233,265.6108,0,U,54677,999,17134,.40110031E-4,.3E-6,0
ONEWEB-0659,2022-166AN,2026-06-16T11:41:13.265376,13.21828047,.00020875,87.9254,244.1278,100.8311,259.3058,0,U,54678,999,17143,.17894096E-3,.87E-6,0
ONEWEB-0685,2022-166AP,2026-06-16T11:41:21.977952,13.21846973,.00020338,87.9252,244.1200,88.3315,271.8052,0,U,54679,999,17132,.1122816E-4,.18E-6,0
ONEWEB-0712,2022-166AQ,2026-06-16T12:40:22.833120,13.16594051,.00015627,87.9100,228.9056,92.4043,267.7266,0,U,54680,999,17197,.21286894E-3,.94E-6,0
ONEWEB-0714,2022-166AR,2026-06-16T04:32:27.693024,13.21824825,.00016966,87.9255,244.1767,98.7870,261.3456,0,U,54681,999,17140,.8003052E-5,.16E-6,0
ONEWEB-0532,2023-004A,2026-06-16T13:51:16.772544,13.17821659,.00022049,87.9134,5.9860,87.7718,272.3666,0,U,55140,999,16750,.11844382E-3,.59E-6,0
ONEWEB-0533,2023-004B,2026-06-16T13:01:16.815072,13.12444738,.00018213,87.8944,350.7988,84.3177,275.8159,0,U,55141,999,16797,-.90780562E-3,-.314E-5,0
ONEWEB-0541,2023-004C,2026-06-16T13:43:34.110048,13.11420458,.00018831,87.8896,21.1805,90.4688,269.6656,0,U,55142,999,16586,.1033698E-2,.379E-5,0
ONEWEB-0543,2023-004D,2026-06-16T11:32:36.940704,13.18685872,.00016223,87.9160,335.6098,92.2604,267.8714,0,U,55143,999,16960,.12120093E-3,.61E-6,0
ONEWEB-0544,2023-004E,2026-06-16T11:22:54.336864,13.18686405,.00017283,87.9161,335.6110,98.6456,261.4872,0,U,55144,999,16960,.21552367E-3,.98E-6,0
ONEWEB-0560,2023-004F,2026-06-16T11:13:11.510976,13.18687373,.00016231,87.9162,335.6017,99.5942,260.5374,0,U,55145,999,16961,.44686435E-4,.31E-6,0
ONEWEB-0565,2023-004G,2026-06-16T11:03:29.051424,13.18685349,.00020303,87.9151,335.6311,104.0318,256.1040,0,U,55146,999,16960,.31612169E-4,.25E-6,0
ONEWEB-0567,2023-004H,2026-06-16T10:53:46.546944,13.18685974,.00018912,87.9160,335.6167,104.4072,255.7270,0,U,55147,999,16960,-.14921323E-4,.7E-7,0
ONEWEB-0569,2023-004J,2026-06-16T11:23:49.719264,13.13470471,.00016003,87.8961,320.3613,126.3838,233.7439,0,U,55148,999,17008,.18470682E-3,.8E-6,0
ONEWEB-0570,2023-004K,2026-06-16T12:30:52.928352,13.18685533,.00022442,87.9159,335.6011,94.5648,265.5740,0,U,55149,999,16960,.64900505E-4,.39E-6,0
ONEWEB-0571,2023-004L,2026-06-16T12:21:10.557792,13.18688275,.00022712,87.9158,335.6018,127.2106,232.9234,0,U,55150,999,16961,.13862954E-3,.68E-6,0
