[
  {
    "name": "ONEWEB-0597",
    "noradId": "54663",
    "line1": "1 54663U 22166X   26167.45500261  .00000121  00000+0  26035-3 0  9998",
    "line2": "2 54663  87.9253 244.1331 0002038  95.3171 264.8196 13.21826972171441"
  },
  {
    "name": "ONEWEB-0600",
    "noradId": "54664",
    "line1": "1 54664U 22166Y   26167.58788051 -.00000087  00000+0 -24098-3 0  9998",
    "line2": "2 54664  87.9253 244.0981 0001811  96.4582 263.6758 13.21824093171430"
  },
  {
    "name": "ONEWEB-0601",
    "noradId": "54665",
    "line1": "1 54665U 22166Z   26167.57947571 -.00000010  00000+0 -56810-4 0  9996",
    "line2": "2 54665  87.9254 244.1160 0002098  91.9360 268.2014 13.21825352171620"
  },
  {
    "name": "ONEWEB-0602",
    "noradId": "54666",
    "line1": "1 54666U 22166AA  26167.46929585  .00000035  00000+0  52552-4 0  9994",
    "line2": "2 54666  87.9254 244.1438 0001772  95.2179 264.9157 13.21826029171456"
  },
  {
    "name": "ONEWEB-0603",
    "noradId": "54667",
    "line1": "1 54667U 22166AB  26167.47519188  .00000105  00000+0  22374-3 0  9996",
    "line2": "2 54667  87.9264 244.0997 0001997  96.0718 264.0644 13.21826451171387"
  },
  {
    "name": "ONEWEB-0604",
    "noradId": "54668",
    "line1": "1 54668U 22166AC  26167.46340267  .00000086  00000+0  17748-3 0  9993",
    "line2": "2 54668  87.9263 244.1173 0002017 101.5697 258.5663 13.21827697171344"
  },
  {
    "name": "ONEWEB-0605",
    "noradId": "54669",
    "line1": "1 54669U 22166AD  26167.45668998  .00000036  00000+0  55992-4 0  9996",
    "line2": "2 54669  87.9254 244.1322 0002535  89.9771 270.1653 13.21826373171415"
  },
  {
    "name": "ONEWEB-0606",
    "noradId": "54670",
    "line1": "1 54670U 22166AE  26167.47855410  .00000050  00000+0  88501-4 0  9995",
    "line2": "2 54670  87.9256 244.1405 0002018 103.9584 256.1775 13.21826615171470"
  },
  {
    "name": "ONEWEB-0607",
    "noradId": "54671",
    "line1": "1 54671U 22166AF  26167.59629154  .00000001  00000+0 -28676-4 0  9997",
    "line2": "2 54671  87.9261 244.0878 0001936  94.5415 265.5941 13.21824369171468"
  },
  {
    "name": "ONEWEB-0608",
    "noradId": "54672",
    "line1": "1 54672U 22166AG  26167.45162363  .00000067  00000+0  13041-3 0  9997",
    "line2": "2 54672  87.9264 244.1132 0002277  86.3599 273.7795 13.21828452171451"
  },
  {
    "name": "ONEWEB-0610",
    "noradId": "54673",
    "line1": "1 54673U 22166AH  26167.58283411 -.00000027  00000+0 -96023-4 0  9990",
    "line2": "2 54673  87.9255 244.1016 0002069  81.3972 278.7396 13.21824384171375"
  },
  {
    "name": "ONEWEB-0611",
    "noradId": "54674",
    "line1": "1 54674U 22166AJ  26167.57609125  .00000049  00000+0  86171-4 0  9999",
    "line2": "2 54674  87.9255 244.0989 0002037 102.9429 257.1933 13.21828361171362"
  },
  {
    "name": "ONEWEB-0612",
    "noradId": "54675",
    "line1": "1 54675U 22166AK  26167.58957182 -.00000026  00000+0 -93497-4 0  9996",
    "line2": "2 54675  87.9266 244.0916 0002039  94.0406 266.0961 13.21825200171351"
  },
  {
    "name": "ONEWEB-0615",
    "noradId": "54676",
    "line1": "1 54676U 22166AL  26167.26660507  .00000003  00000+0 -25237-4 0  9995",
    "line2": "2 54676  87.9257 244.1706 0001860 105.5385 254.5955 13.21826293171320"
  },
  {
    "name": "ONEWEB-0655",
    "noradId": "54677",
    "line1": "1 54677U 22166AM  26167.47014293  .00000030  00000+0  40110-4 0  9990",
    "line2": "2 54677  87.9254 244.1314 0001817  94.5233 265.6108 13.21826763171341"
  },
  {
    "name": "ONEWEB-0659",
    "noradId": "54678",
    "line1": "1 54678U 22166AN  26167.48695909  .00000087  00000+0  17894-3 0  9995",
    "line2": "2 54678  87.9254 244.1278 0002087 100.8311 259.3058 13.21828047171430"
  },
  {
    "name": "ONEWEB-0685",
    "noradId": "54679",
    "line1": "1 54679U 22166AP  26167.48705993  .00000018  00000+0  11228-4 0  9991",
    "line2": "2 54679  87.9252 244.1200 0002033  88.3315 271.8052 13.21846973171328"
  },
  {
    "name": "ONEWEB-0712",
    "noradId": "54680",
    "line1": "1 54680U 22166AQ  26167.52804205  .00000094  00000+0  21287-3 0  9993",
    "line2": "2 54680  87.9100 228.9056 0001562  92.4043 267.7266 13.16594051171974"
  },
  {
    "name": "ONEWEB-0714",
    "noradId": "54681",
    "line1": "1 54681U 22166AR  26167.18920941  .00000016  00000+0  80031-5 0  9990",
    "line2": "2 54681  87.9255 244.1767 0001696  98.7870 261.3456 13.21824825171400"
  },
  {
    "name": "ONEWEB-0532",
    "noradId": "55140",
    "line1": "1 55140U 23004A   26167.57727746  .00000059  00000+0  11844-3 0  9995",
    "line2": "2 55140  87.9134   5.9860 0002204  87.7718 272.3666 13.17821659167507"
  },
  {
    "name": "ONEWEB-0533",
    "noradId": "55141",
    "line1": "1 55141U 23004B   26167.54255573 -.00000314  00000+0 -90781-3 0  9990",
    "line2": "2 55141  87.8944 350.7988 0001821  84.3177 275.8159 13.12444738167974"
  },
  {
    "name": "ONEWEB-0541",
    "noradId": "55142",
    "line1": "1 55142U 23004C   26167.57192257  .00000379  00000+0  10337-2 0  9990",
    "line2": "2 55142  87.8896  21.1805 0001883  90.4688 269.6656 13.11420458165862"
  },
  {
    "name": "ONEWEB-0543",
    "noradId": "55143",
    "line1": "1 55143U 23004D   26167.48098311  .00000061  00000+0  12120-3 0  9998",
    "line2": "2 55143  87.9160 335.6098 0001622  92.2604 267.8714 13.18685872169605"
  },
  {
    "name": "ONEWEB-0544",
    "noradId": "55144",
    "line1": "1 55144U 23004E   26167.47424001  .00000098  00000+0  21552-3 0  9996",
    "line2": "2 55144  87.9161 335.6110 0001728  98.6456 261.4872 13.18686405169602"
  },
  {
    "name": "ONEWEB-0560",
    "noradId": "55145",
    "line1": "1 55145U 23004F   26167.46749434  .00000031  00000+0  44686-4 0  9997",
    "line2": "2 55145  87.9162 335.6017 0001623  99.5942 260.5374 13.18687373169617"
  },
  {
    "name": "ONEWEB-0565",
    "noradId": "55146",
    "line1": "1 55146U 23004G   26167.46075291  .00000025  00000+0  31612-4 0  9999",
    "line2": "2 55146  87.9151 335.6311 0002030 104.0318 256.1040 13.18685349169606"
  },
  {
    "name": "ONEWEB-0567",
    "noradId": "55147",
    "line1": "1 55147U 23004H   26167.45401096  .00000007  00000+0 -14921-4 0  9990",
    "line2": "2 55147  87.9160 335.6167 0001891 104.4072 255.7270 13.18685974169605"
  },
  {
    "name": "ONEWEB-0569",
    "noradId": "55148",
    "line1": "1 55148U 23004J   26167.47488101  .00000080  00000+0  18471-3 0  9998",
    "line2": "2 55148  87.8961 320.3613 0001600 126.3838 233.7439 13.13470471170088"
  },
  {
    "name": "ONEWEB-0570",
    "noradId": "55149",
    "line1": "1 55149U 23004K   26167.52144593  .00000039  00000+0  64901-4 0  9993",
    "line2": "2 55149  87.9159 335.6011 0002244  94.5648 265.5740 13.18685533169606"
  },
  {
    "name": "ONEWEB-0571",
    "noradId": "55150",
    "line1": "1 55150U 23004L   26167.51470553  .00000068  00000+0  13863-3 0  9994",
    "line2": "2 55150  87.9158 335.6018 0002271 127.2106 232.9234 13.18688275169610"
  }
]